ONEWEB-0553             
1 56055U 23043K   23331.72947478 -.00000010  00000+0 -49527-4 0  9996
2 56055  87.9606  54.3638 0001633 127.1518 232.9770 13.29906393 36257
ONEWEB-0554             
1 56056U 23043L   23332.24071311  .00000803  00000+0  17001-2 0  9997
2 56056  87.9625  54.2708 0005009 125.2434 234.9174 13.29708305 37213
ONEWEB-0555             
1 56057U 23043M   23331.72932276  .00003230  00000+0  68976-2 0  9990
2 56057  87.9788  54.3274 0002233  55.0195 305.1153 13.29923423 36243
ONEWEB-0557             
1 56058U 23043N   23332.30144864  .00000188  00000+0  37439-3 0  9994
2 56058  87.9598  54.2703 0003090  66.6661 293.4802 13.29933323 37226
ONEWEB-0558             
1 56059U 23043P   23332.31702089  .00000135  00000+0  29542-3 0  9993
2 56059  87.9258  69.4904 0001375 119.2453 240.8818 13.21826884 36046
ONEWEB-0559             
1 56060U 23043Q   23331.77612958  .00000060  00000+0  11469-3 0  9995
2 56060  87.9259  69.5991 0001033  93.1726 266.9526 13.21826233 35075
ONEWEB-0566             
1 56061U 23043R   23331.76979922  .00000684  00000+0  16239-2 0  9993
2 56061  87.9258  69.6021 0001247 121.7680 238.3575 13.21821633 35058
ONEWEB-0568             
1 56062U 23043S   23332.58334491  .00045064  00000+0  96666-1 0  9993
2 56062  87.9826  54.1453 0003087  67.2332 285.1344 13.29560923 37281
